satname,norad_id,inclination_deg,eccentricity,mean_motion_rev_per_day,perigee_km,apogee_km,l1,l2
STARLINK-1280,45388,53.0513,0.0010496,15.4589596,421.60223740379934,435.8912477562235,1 45388U 20019AE  25341.04452926  .00032208  00000+0  65683-3 0  9992,2 45388  53.0513 210.5284 0010496 117.3886 242.8190 15.45895960315921
STARLINK-1283,45389,53.051,0.0010344,15.35188007,453.28837574307,467.4358627209367,1 45389U 20019AF  25341.30428568  .00026590  00000+0  77453-3 0  9992,2 45389  53.0510 190.9645 0010344 126.4180 233.7777 15.35188007316232
STARLINK-1284,45390,53.0546,0.0001378,15.06398188,546.2627976663089,548.1714252594284,1 45390U 20019AG  25340.86719726  .00000961  00000+0  83410-4 0  9998,2 45390  53.0546 203.3184 0001378  92.9364 267.1783 15.06398188316013
STARLINK-1297,45395,53.0534,0.0001315,15.06396979,546.3101323307283,548.1315014365673,1 45395U 20019AM  25340.90407205  .00003598  00000+0  26032-3 0  9999,2 45395  53.0534 203.1505 0001315  86.3627 273.7512 15.06396979315209
STARLINK-1307,45397,53.0534,0.0001616,15.06400307,546.0914808527414,548.3297532025645,1 45397U 20019AP  25340.89668682 -.00001173  00000+0 -59875-4 0  9998,2 45397  53.0534 203.1834 0001616  94.9539 265.1634 15.06400307315848
STARLINK-1255,45399,53.0454,0.0008094,15.35098125,455.0937547541862,466.1643492391586,1 45399U 20019AR  25340.85709050  .00019021  00000+0  55967-3 0  9997,2 45399  53.0454 184.1335 0008094 130.5810 229.5898 15.35098125316098
STARLINK-1260,45404,53.0542,0.0001391,15.06396209,546.2598592310424,548.1864944322369,1 45404U 20019AW  25341.29568865  .00001049  00000+0  89328-4 0  9990,2 45404  53.0542 191.3878 0001391  93.7269 266.3879 15.06396209315938
STARLINK-1263,45405,53.0554,0.0001434,15.06410811,546.1853337467091,548.1715142103058,1 45405U 20019AX  25341.28092953  .00001901  00000+0  14647-3 0  9998,2 45405  53.0554 191.4591 0001434  97.0289 263.0863 15.06410811315935
STARLINK-1265,45406,53.0535,0.00015,15.06395826,546.1855464740474,548.2631548792515,1 45406U 20019AY  25341.28831354 -.00000687  00000+0 -27215-4 0  9993,2 45406  53.0535 191.4245 0001500  87.1986 272.9174 15.06395826315931
STARLINK-1278,45408,53.0512,0.0009485,15.38323206,444.5899336275497,457.5449344389117,1 45408U 20019BA  25341.05718487  .00023931  00000+0  63171-3 0  9996,2 45408  53.0512 212.7047 0009485 110.7043 249.4977 15.38323206315626
STARLINK-1296,45412,53.0539,0.0001499,15.06396741,546.183435075809,548.2596575679963,1 45412U 20019BE  25341.29200006 -.00000104  00000+0  11891-4 0  9991,2 45412  53.0539 191.4057 0001499  87.4642 272.6519 15.06396741315939
STARLINK-1298,45413,53.0454,0.0007846,15.59253993,384.50478414938607,395.12505430103465,1 45413U 20019BF  25341.19066512  .00077742  00000+0  96745-3 0  9994,2 45413  53.0454 155.0944 0007846  86.9655 273.2254 15.59253993316536
STARLINK-1309,45414,53.0542,0.000162,15.06397456,546.0974472133466,548.3412626723484,1 45414U 20019BG  25341.30674700  .00000193  00000+0  31845-4 0  9999,2 45414  53.0542 191.3440 0001620  88.5860 271.5314 15.06397456315924
STARLINK-1316,45415,53.0544,0.0001399,15.06394283,546.2602210607329,548.1979384898532,1 45415U 20019BH  25340.86811622  .00000397  00000+0  45563-4 0  9994,2 45415  53.0544 193.3112 0001399  85.4773 274.6375 15.06394283315899
STARLINK-1318,45416,53.0471,0.0003267,15.66357758,367.13228856050955,371.5410878683888,1 45416U 20019BJ  25341.33336806  .00182472  00000+0  16942-2 0  9996,2 45416  53.0471 144.0119 0003267 159.4220 231.3500 15.66357758  5926
STARLINK-1286,45417,53.0525,0.0005708,15.39907082,442.4883954298366,450.2792684115575,1 45417U 20019BK  25341.04756579  .00032721  00000+0  81638-3 0  9994,2 45417  53.0525 212.7527 0005708 115.0778 245.0819 15.39907082315897
STARLINK-1308,45419,53.0538,0.0001488,15.06390274,546.2108705868677,548.2718631888529,1 45419U 20019BM  25341.10126515 -.00000108  00000+0  11664-4 0  9992,2 45419  53.0538 222.2612 0001488  83.6909 276.4250 15.06390274315510
STARLINK-1329,45531,53.0554,0.0001426,15.12716713,526.9343380388927,528.9039452504894,1 45531U 20025A   25341.33336806  .00691531  00000+0  36399-1 0  9999,2 45531  53.0554 161.1471 0001426  78.7100 310.1370 15.12716713  5788
STARLINK-1338,45532,53.0545,0.0001376,15.06376964,546.3292231836731,548.2350985367411,1 45532U 20025B   25341.21367634 -.00005217  00000+0 -33183-3 0  9992,2 45532  53.0545 161.7578 0001376 108.3089 251.8050 15.06376964311153
STARLINK-1350,45535,53.0742,0.0001676,15.33460633,464.34966906226964,466.6436550657927,1 45535U 20025E   25341.06222746  .00017265  00000+0  53651-3 0  9998,2 45535  53.0742 107.2862 0001676 102.8813 257.2375 15.33460633311936
STARLINK-1362,45538,53.0549,0.0001535,15.0640096,546.1455751260983,548.2716562301111,1 45538U 20025H   25341.24586446  .00000965  00000+0  83686-4 0  9992,2 45538  53.0549 161.3343 0001535  84.2606 275.8558 15.06400960311167
STARLINK-1368,45540,53.0543,0.0001554,15.0639741,546.1432955271557,548.2956963260895,1 45540U 20025K   25340.78610386  .00001049  00000+0  89289-4 0  9993,2 45540  53.0543 163.6795 0001554  88.0601 272.0566 15.06397410311082
STARLINK-1371,45542,53.055,0.0001572,15.06386486,546.1643054072083,548.3416480158867,1 45542U 20025M   25341.22104318  .00000659  00000+0  63170-4 0  9995,2 45542  53.0550 161.7237 0001572  92.8443 267.2726 15.06386486311152
STARLINK-1372,45543,53.0538,0.0001268,15.06388748,546.3679053423848,548.124182482321,1 45543U 20025N   25340.92617833 -.00001459  00000+0 -79128-4 0  9994,2 45543  53.0538 163.0514 0001268  92.1039 268.0095 15.06388748310204
STARLINK-1373,45544,53.0535,0.0001132,15.06392543,546.4504606196388,548.0183647074655,1 45544U 20025P   25341.20998734 -.00001322  00000+0 -69883-4 0  9995,2 45544  53.0535 161.7722 0001132  91.1479 268.9640 15.06392543311153
STARLINK-1294,45551,53.0455,0.0002211,15.66881714,366.34086027655576,369.3239279426316,1 45551U 20025W   25341.00002315 -.00013159  00000+0 -11687-3 0  9991,2 45551  53.0455  81.0691 0002211 156.4645 184.1841 15.66881714  5959
STARLINK-1325,45554,53.0512,0.000786,15.76143556,336.09748803266484,346.66056722809844,1 45554U 20025Z   25341.33336806  .00128813  00000+0  79810-3 0  9999,2 45554  53.0512  70.9990 0007860 355.0198 212.2259 15.76143556  5952
STARLINK-1327,45555,53.0551,0.0001333,15.06391678,546.3139114244077,548.1602161498131,1 45555U 20025AA  25341.18234508  .00001355  00000+0  10986-3 0  9999,2 45555  53.0551 141.8989 0001333  91.5787 268.5355 15.06391678311423
STARLINK-1356,45564,53.0552,0.0001267,15.06391669,546.3596464736911,548.1145362684456,1 45564U 20025AK  25341.18602974 -.00000890  00000+0 -40907-4 0  9997,2 45564  53.0552 141.8818 0001267  94.2050 265.9084 15.06391669311424
STARLINK-1357,45565,53.0604,0.000694,15.38096383,446.99888534794627,456.4787529849491,1 45565U 20025AL  25340.78193860  .00026156  00000+0  69481-3 0  9990,2 45565  53.0604 121.3959 0006940 138.5076 221.6455 15.38096383311684
STARLINK-1361,45567,53.0552,0.0001451,15.06394914,546.2222755020548,548.2320161771768,1 45567U 20025AN  25340.87273683  .00004082  00000+0  29281-3 0  9992,2 45567  53.0552 143.2869 0001451  82.9930 277.1224 15.06394914311387
STARLINK-1363,45568,53.0522,0.0006395,15.48033959,418.12895377112454,426.8269402883743,1 45568U 20025AP  25340.71731932  .00044822  00000+0  84556-3 0  9994,2 45568  53.0522 131.8457 0006395 200.1221 159.9535 15.48033959311523
STARLINK-1366,45569,53.0519,0.0005068,15.45085144,427.67696938528115,434.5788402928256,1 45569U 20025AQ  25341.11366035  .00036443  00000+0  76355-3 0  9996,2 45569  53.0519 129.9286 0005068 212.2103 147.8594 15.45085144311584
STARLINK-1376,45570,53.0535,0.0001394,15.06394759,546.2622250668537,548.1930167231585,1 45570U 20025AR  25340.73634230 -.00001734  00000+0 -97580-4 0  9991,2 45570  53.0535 143.9040 0001394  92.1366 267.9783 15.06394759311353
STARLINK-1320,45572,53.0555,0.0005415,15.47873894,419.2639846092743,426.6295583337769,1 45572U 20025AT  25341.26435195  .00040289  00000+0  76573-3 0  9995,2 45572  53.0555  74.8201 0005415 116.0702 244.0863 15.47873894312393
STARLINK-1321,45573,53.0533,0.0001186,15.06392441,546.4133761948397,548.0560743680762,1 45573U 20025AU  25341.12060315 -.00000462  00000+0 -12101-4 0  9998,2 45573  53.0533 132.1790 0001186  83.0325 277.0799 15.06392441311253
STARLINK-1328,45576,53.0453,0.0003928,15.84155364,316.0735636917507,321.33460204645235,1 45576U 20025AX  25341.33336806  .00291976  00000+0  12291-2 0  9993,2 45576  53.0453  89.2723 0003928 177.0486 305.2707 15.84155364  6029
STARLINK-1331,45578,53.0543,0.0001523,15.06402871,546.1480295054944,548.2574879960102,1 45578U 20025AZ  25341.16482841  .00001903  00000+0  14657-3 0  9995,2 45578  53.0543 131.9785 0001523  86.9563 273.1601 15.06402871311574
STARLINK-1333,45580,53.0557,0.0001282,15.06391886,546.3485934180217,548.1242591645232,1 45580U 20025BB  25341.17128993  .00001564  00000+0  12391-3 0  9990,2 45580  53.0557 141.9471 0001282  90.9043 269.2093 15.06391886311423
STARLINK-1335,45581,53.0553,0.0001303,15.06396097,546.3211456212011,548.1258945727377,1 45581U 20025BC  25340.71146151 -.00001246  00000+0 -64782-4 0  9997,2 45581  53.0553 134.0142 0001303 104.8381 255.2752 15.06396097311495
STARLINK-1337,45582,53.0562,0.0001486,15.06389647,546.2141770630187,548.2724000847829,1 45582U 20025BD  25341.13166462 -.00000820  00000+0 -36196-4 0  9997,2 45582  53.0562 132.1304 0001486  83.5312 276.5846 15.06389647311554
STARLINK-1347,45586,53.0526,0.0006574,15.36905091,450.77541684222797,459.7599773379616,1 45586U 20025BH  25341.06126710  .00022014  00000+0  60975-3 0  9993,2 45586  53.0526 110.7694 0006574 141.7027 218.4443 15.36905091311845
STARLINK-1360,45588,53.0397,0.0004228,15.87211614,307.2768131342373,312.9323902326205,1 45588U 20025BK  25341.33336806  .00221293  00000+0  81077-3 0  9990,2 45588  53.0397  15.7093 0004228  20.8833  65.2398 15.87211614  5963
